[{"OBJECT_NAME":"ONEWEB-0568","OBJECT_ID":"2023-043S","EPOCH":"2026-03-09T21:51:42.086592","MEAN_MOTION":13.16596168,"ECCENTRICITY":0.00015778,"INCLINATION":87.9005,"RA_OF_ASC_NODE":248.5169,"ARG_OF_PERICENTER":85.4032,"MEAN_ANOMALY":274.7279,"EPHEMERIS_TYPE":0,"CLASSIFICATION_TYPE":"U","NORAD_CAT_ID":56062,"ELEMENT_SET_NO":999,"REV_AT_EPOCH":14591,"BSTAR":-0.00024599621,"MEAN_MOTION_DOT":-8.1e-7,"MEAN_MOTION_DDOT":0},{"OBJECT_NAME":"FENGYUN 1C DEB","OBJECT_ID":"1999-025DXJ","EPOCH":"2026-03-09T05:09:04.298112","MEAN_MOTION":13.60936903,"ECCENTRICITY":0.02884045,"INCLINATION":99.258,"RA_OF_ASC_NODE":350.69,"ARG_OF_PERICENTER":250.3074,"MEAN_ANOMALY":106.6744,"EPHEMERIS_TYPE":0,"CLASSIFICATION_TYPE":"U","NORAD_CAT_ID":36281,"ELEMENT_SET_NO":999,"REV_AT_EPOCH":85693,"BSTAR":0.0024367884,"MEAN_MOTION_DOT":2.39e-5,"MEAN_MOTION_DDOT":0}]
